SL-3 R/B                
1 13403U 82079B   26086.58049964  .00005899  00000+0  23297-3 0  9990
2 13403  81.1483 171.9532 0025535 105.9048 254.5002 15.25034227380429
SL-14 R/B               
1 13553U 82092B   26086.62479073  .00000389  00000+0  40917-4 0  9992
2 13553  82.5660 124.6217 0018982 239.3991 238.2708 14.86681958331590
SL-3 R/B                
1 13819U 83010B   26086.42294030  .00014200  00000+0  27972-3 0  9996
2 13819  81.1054 340.4986 0016142 350.9613   9.1339 15.46943665360685
SL-3 R/B                
1 14208U 83075B   26086.57177840  .00010753  00000+0  27995-3 0  9999
2 14208  97.6143  91.8320 0022129 160.7781 199.4303 15.38827007332903
COSMOS 1536             
1 14699U 84013A   26086.51414398  .00006001  00000+0  24550-3 0  9997
2 14699  82.5417  90.1241 0013186 213.0600 146.9815 15.24058277275331
SL-14 R/B               
1 14820U 84027B   26086.47011620  .00000538  00000+0  58751-4 0  9994
2 14820  82.5413 228.3349 0016475 275.0087  84.9248 14.85994434250275
SL-8 R/B                
1 15483U 85006B   26086.61407280  .00000290  00000+0  10492-3 0  9999
2 15483  74.0449 228.1632 0017734 140.8509 304.3822 14.37795778156602
SL-12 R/B(2)            
1 15772U 85042D   26086.36114698  .00000070  00000+0  52790-4 0  9994
2 15772  71.1083  50.3909 0032860  98.8568  14.5648 14.21987250116907
SL-14 R/B               
1 15945U 85069B   26086.51680539  .00000475  00000+0  50787-4 0  9997
2 15945  82.5305   8.1743 0019969 130.1492 230.1478 14.86451840175487
SL-16 R/B               
1 16182U 85097B   26086.51838705 -.00000011  00000+0  18366-4 0  9996
2 16182  71.0008 103.0180 0009485 238.9475 283.3303 14.16603540 89754
SL-14 R/B               
1 16496U 86006B   26086.48929080  .00000872  00000+0  90045-4 0  9996
2 16496  82.5249 242.9806 0075704 212.7731 146.8780 14.86841796151853
COSMOS 1743             
1 16719U 86034A   26086.35472381  .00042239  00000+0  52127-3 0  9999
2 16719  82.5301  55.2698 0003973 175.8004 184.3287 15.59973824183005
