CCSDS_OMM_VERS = 2.0
CREATION_DATE  = 
ORIGINATOR     = 

OBJECT_NAME    = SL-3 R/B
OBJECT_ID      = 1982-079B
CENTER_NAME    = EARTH
REF_FRAME      = TEME
TIME_SYSTEM    = UTC
MEAN_ELEMENT_THEORY = SGP/SGP4

EPOCH          = 2026-03-27T13:55:55.168896
MEAN_MOTION    = 15.25034227
ECCENTRICITY   = .00255356
INCLINATION    = 81.1483
RA_OF_ASC_NODE = 171.9532
ARG_OF_PERICENTER = 105.9048
MEAN_ANOMALY   = 254.5002

EPHEMERIS_TYPE = 0
CLASSIFICATION_TYPE = U
NORAD_CAT_ID   = 13403
ELEMENT_SET_NO = 999
REV_AT_EPOCH   = 38042
BSTAR          = .23296755E-3
MEAN_MOTION_DOT = .5899E-4
MEAN_MOTION_DDOT = 0

CCSDS_OMM_VERS = 2.0
CREATION_DATE  = 
ORIGINATOR     = 

OBJECT_NAME    = SL-14 R/B
OBJECT_ID      = 1982-092B
CENTER_NAME    = EARTH
REF_FRAME      = TEME
TIME_SYSTEM    = UTC
MEAN_ELEMENT_THEORY = SGP/SGP4

EPOCH          = 2026-03-27T14:59:41.919072
MEAN_MOTION    = 14.86681958
ECCENTRICITY   = .00189828
INCLINATION    = 82.5660
RA_OF_ASC_NODE = 124.6217
ARG_OF_PERICENTER = 239.3991
MEAN_ANOMALY   = 238.2708

EPHEMERIS_TYPE = 0
CLASSIFICATION_TYPE = U
NORAD_CAT_ID   = 13553
ELEMENT_SET_NO = 999
REV_AT_EPOCH   = 33159
BSTAR          = .40916989E-4
MEAN_MOTION_DOT = .389E-5
MEAN_MOTION_DDOT = 0

CCSDS_OMM_VERS = 2.0
CREATION_DATE  = 
ORIGINATOR     = 

OBJECT_NAME    = SL-3 R/B
OBJECT_ID      = 1983-010B
CENTER_NAME    = EARTH
REF_FRAME      = TEME
TIME_SYSTEM    = UTC
MEAN_ELEMENT_THEORY = SGP/SGP4

EPOCH          = 2026-03-27T10:09:02.041920
MEAN_MOTION    = 15.46943665
ECCENTRICITY   = .00161424
INCLINATION    = 81.1054
RA_OF_ASC_NODE = 340.4986
ARG_OF_PERICENTER = 350.9613
MEAN_ANOMALY   = 9.1339

EPHEMERIS_TYPE = 0
CLASSIFICATION_TYPE = U
NORAD_CAT_ID   = 13819
ELEMENT_SET_NO = 999
REV_AT_EPOCH   = 36068
BSTAR          = .27972367E-3
MEAN_MOTION_DOT = .142E-3
MEAN_MOTION_DDOT = 0

CCSDS_OMM_VERS = 2.0
CREATION_DATE  = 
ORIGINATOR     = 

OBJECT_NAME    = SL-3 R/B
OBJECT_ID      = 1983-075B
CENTER_NAME    = EARTH
REF_FRAME      = TEME
TIME_SYSTEM    = UTC
MEAN_ELEMENT_THEORY = SGP/SGP4

EPOCH          = 2026-03-27T13:43:21.653760
MEAN_MOTION    = 15.38827007
ECCENTRICITY   = .0022129
INCLINATION    = 97.6143
RA_OF_ASC_NODE = 91.8320
ARG_OF_PERICENTER = 160.7781
MEAN_ANOMALY   = 199.4303

EPHEMERIS_TYPE = 0
CLASSIFICATION_TYPE = U
NORAD_CAT_ID   = 14208
ELEMENT_SET_NO = 999
REV_AT_EPOCH   = 33290
BSTAR          = .27994965E-3
MEAN_MOTION_DOT = .10753E-3
MEAN_MOTION_DDOT = 0

CCSDS_OMM_VERS = 2.0
CREATION_DATE  = 
ORIGINATOR     = 

OBJECT_NAME    = COSMOS 1536
OBJECT_ID      = 1984-013A
CENTER_NAME    = EARTH
REF_FRAME      = TEME
TIME_SYSTEM    = UTC
MEAN_ELEMENT_THEORY = SGP/SGP4

EPOCH          = 2026-03-27T12:20:22.039872
MEAN_MOTION    = 15.24058277
ECCENTRICITY   = .00131864
INCLINATION    = 82.5417
RA_OF_ASC_NODE = 90.1241
ARG_OF_PERICENTER = 213.0600
MEAN_ANOMALY   = 146.9815

EPHEMERIS_TYPE = 0
CLASSIFICATION_TYPE = U
NORAD_CAT_ID   = 14699
ELEMENT_SET_NO = 999
REV_AT_EPOCH   = 27533
BSTAR          = .24549522E-3
MEAN_MOTION_DOT = .6001E-4
MEAN_MOTION_DDOT = 0

CCSDS_OMM_VERS = 2.0
CREATION_DATE  = 
ORIGINATOR     = 

OBJECT_NAME    = SL-14 R/B
OBJECT_ID      = 1984-027B
CENTER_NAME    = EARTH
REF_FRAME      = TEME
TIME_SYSTEM    = UTC
MEAN_ELEMENT_THEORY = SGP/SGP4

EPOCH          = 2026-03-27T11:16:58.039680
MEAN_MOTION    = 14.85994434
ECCENTRICITY   = .00164759
INCLINATION    = 82.5413
RA_OF_ASC_NODE = 228.3349
ARG_OF_PERICENTER = 275.0087
MEAN_ANOMALY   = 84.9248

EPHEMERIS_TYPE = 0
CLASSIFICATION_TYPE = U
NORAD_CAT_ID   = 14820
ELEMENT_SET_NO = 999
REV_AT_EPOCH   = 25027
BSTAR          = .58751436E-4
MEAN_MOTION_DOT = .538E-5
MEAN_MOTION_DDOT = 0

CCSDS_OMM_VERS = 2.0
CREATION_DATE  = 
ORIGINATOR     = 

OBJECT_NAME    = SL-8 R/B
OBJECT_ID      = 1985-006B
CENTER_NAME    = EARTH
REF_FRAME      = TEME
TIME_SYSTEM    = UTC
MEAN_ELEMENT_THEORY = SGP/SGP4

EPOCH          = 2026-03-27T14:44:15.889920
MEAN_MOTION    = 14.37795778
ECCENTRICITY   = .00177348
INCLINATION    = 74.0449
RA_OF_ASC_NODE = 228.1632
ARG_OF_PERICENTER = 140.8509
MEAN_ANOMALY   = 304.3822

EPHEMERIS_TYPE = 0
CLASSIFICATION_TYPE = U
NORAD_CAT_ID   = 15483
ELEMENT_SET_NO = 999
REV_AT_EPOCH   = 15660
BSTAR          = .10491873E-3
MEAN_MOTION_DOT = .29E-5
MEAN_MOTION_DDOT = 0

CCSDS_OMM_VERS = 2.0
CREATION_DATE  = 
ORIGINATOR     = 

OBJECT_NAME    = SL-12 R/B(2)
OBJECT_ID      = 1985-042D
CENTER_NAME    = EARTH
REF_FRAME      = TEME
TIME_SYSTEM    = UTC
MEAN_ELEMENT_THEORY = SGP/SGP4

EPOCH          = 2026-03-27T08:40:03.099072
MEAN_MOTION    = 14.21987250
ECCENTRICITY   = .00328606
INCLINATION    = 71.1083
RA_OF_ASC_NODE = 50.3909
ARG_OF_PERICENTER = 98.8568
MEAN_ANOMALY   = 14.5648

EPHEMERIS_TYPE = 0
CLASSIFICATION_TYPE = U
NORAD_CAT_ID   = 15772
ELEMENT_SET_NO = 999
REV_AT_EPOCH   = 11690
BSTAR          = .52789682E-4
MEAN_MOTION_DOT = .7E-6
MEAN_MOTION_DDOT = 0

CCSDS_OMM_VERS = 2.0
CREATION_DATE  = 
ORIGINATOR     = 

OBJECT_NAME    = SL-14 R/B
OBJECT_ID      = 1985-069B
CENTER_NAME    = EARTH
REF_FRAME      = TEME
TIME_SYSTEM    = UTC
MEAN_ELEMENT_THEORY = SGP/SGP4

EPOCH          = 2026-03-27T12:24:11.985696
MEAN_MOTION    = 14.86451840
ECCENTRICITY   = .00199695
INCLINATION    = 82.5305
RA_OF_ASC_NODE = 8.1743
ARG_OF_PERICENTER = 130.1492
MEAN_ANOMALY   = 230.1478

EPHEMERIS_TYPE = 0
CLASSIFICATION_TYPE = U
NORAD_CAT_ID   = 15945
ELEMENT_SET_NO = 999
REV_AT_EPOCH   = 17548
BSTAR          = .50787086E-4
MEAN_MOTION_DOT = .475E-5
MEAN_MOTION_DDOT = 0

CCSDS_OMM_VERS = 2.0
CREATION_DATE  = 
ORIGINATOR     = 

OBJECT_NAME    = SL-16 R/B
OBJECT_ID      = 1985-097B
CENTER_NAME    = EARTH
REF_FRAME      = TEME
TIME_SYSTEM    = UTC
MEAN_ELEMENT_THEORY = SGP/SGP4

EPOCH          = 2026-03-27T12:26:28.641120
MEAN_MOTION    = 14.16603540
ECCENTRICITY   = .00094851
INCLINATION    = 71.0008
RA_OF_ASC_NODE = 103.0180
ARG_OF_PERICENTER = 238.9475
MEAN_ANOMALY   = 283.3303

EPHEMERIS_TYPE = 0
CLASSIFICATION_TYPE = U
NORAD_CAT_ID   = 16182
ELEMENT_SET_NO = 999
REV_AT_EPOCH   = 8975
BSTAR          = .18365832E-4
MEAN_MOTION_DOT = -.11E-6
MEAN_MOTION_DDOT = 0

CCSDS_OMM_VERS = 2.0
CREATION_DATE  = 
ORIGINATOR     = 

OBJECT_NAME    = SL-14 R/B
OBJECT_ID      = 1986-006B
CENTER_NAME    = EARTH
REF_FRAME      = TEME
TIME_SYSTEM    = UTC
MEAN_ELEMENT_THEORY = SGP/SGP4

EPOCH          = 2026-03-27T11:44:34.725120
MEAN_MOTION    = 14.86841796
ECCENTRICITY   = .00757042
INCLINATION    = 82.5249
RA_OF_ASC_NODE = 242.9806
ARG_OF_PERICENTER = 212.7731
MEAN_ANOMALY   = 146.8780

EPHEMERIS_TYPE = 0
CLASSIFICATION_TYPE = U
NORAD_CAT_ID   = 16496
ELEMENT_SET_NO = 999
REV_AT_EPOCH   = 15185
BSTAR          = .90044684E-4
MEAN_MOTION_DOT = .872E-5
MEAN_MOTION_DDOT = 0

CCSDS_OMM_VERS = 2.0
CREATION_DATE  = 
ORIGINATOR     = 

OBJECT_NAME    = COSMOS 1743
OBJECT_ID      = 1986-034A
CENTER_NAME    = EARTH
REF_FRAME      = TEME
TIME_SYSTEM    = UTC
MEAN_ELEMENT_THEORY = SGP/SGP4

EPOCH          = 2026-03-27T08:30:48.137184
MEAN_MOTION    = 15.59973824
ECCENTRICITY   = .00039737
INCLINATION    = 82.5301
RA_OF_ASC_NODE = 55.2698
ARG_OF_PERICENTER = 175.8004
MEAN_ANOMALY   = 184.3287

EPHEMERIS_TYPE = 0
CLASSIFICATION_TYPE = U
NORAD_CAT_ID   = 16719
ELEMENT_SET_NO = 999
REV_AT_EPOCH   = 18300
BSTAR          = .52126915E-3
MEAN_MOTION_DOT = .42239E-3
MEAN_MOTION_DDOT = 0

